[Satellite]
VERSION=1.1
NAME=STARLINK-5017
NICKNAME=STARLINK-5017
TLE1=1 53915U 22119AF  22297.25001157 -.00132621  00000+0 -95623-3 0  9995
TLE2=2 53915  53.2151 108.0602 0000985  74.1880 116.7859 15.73182479  5042
STATUS=0
